COSMOS 2575             
1 58929U 24026A   26068.78497853  .00040851  00000+0  27112-3 0  9993
2 58929  96.6330 317.2894 0001531  67.5645 292.5784 15.75382154119985
STARLINK-11577 [DTC]    
1 63013U 25032J   26068.37693698  .00215650  00000+0  16333-2 0  9994
2 63013  42.9990 197.3106 0001563 236.3502 123.7216 15.70949884 62163
