[{"OBJECT_NAME":"COSMOS 2575","OBJECT_ID":"2024-026A","EPOCH":"2026-03-09T18:50:22.144992","MEAN_MOTION":15.75382155,"ECCENTRICITY":0.0001531,"INCLINATION":96.633,"RA_OF_ASC_NODE":317.2894,"ARG_OF_PERICENTER":67.5645,"MEAN_ANOMALY":292.5784,"EPHEMERIS_TYPE":0,"CLASSIFICATION_TYPE":"U","NORAD_CAT_ID":58929,"ELEMENT_SET_NO":999,"REV_AT_EPOCH":11998,"BSTAR":0.00027111555,"MEAN_MOTION_DOT":0.00040851,"MEAN_MOTION_DDOT":0},{"OBJECT_NAME":"STARLINK-11577 [DTC]","OBJECT_ID":"2025-032J","EPOCH":"2026-03-09T09:02:47.355072","MEAN_MOTION":15.70949884,"ECCENTRICITY":0.00015631,"INCLINATION":42.999,"RA_OF_ASC_NODE":197.3106,"ARG_OF_PERICENTER":236.3502,"MEAN_ANOMALY":123.7216,"EPHEMERIS_TYPE":0,"CLASSIFICATION_TYPE":"U","NORAD_CAT_ID":63013,"ELEMENT_SET_NO":999,"REV_AT_EPOCH":6216,"BSTAR":0.0016333224,"MEAN_MOTION_DOT":0.0021565,"MEAN_MOTION_DDOT":0}]
